BLOCK DM-SL R/B         
1 26452U 00043B   26064.66684175 -.00000132  00000+0  00000+0 0  9992
2 26452   1.4036  95.0780 6709126 220.5094  77.3727  2.16748332202358
FENGYUN 2B AKM          
1 26460U 00032C   26062.06662389  .00000018  00000+0  00000+0 0  9996
2 26460  14.3777   7.0654 0022680  35.0353 325.1205  1.00192807121121
CLUSTER II-FM8 (TANGO)  
1 26464U 00045B   26049.06287974  .00004776  00000+0  00000+0 0  9997
2 26464 149.0711  33.5376 8890045 249.4570 359.4916  0.44405995 19769
RADUGA-1 5              
1 26477U 00049A   26064.31825086 -.00000335  00000+0  00000+0 0  9990
2 26477  13.9086   8.8353 0001389  18.5405 352.8645  1.00243531 93381
SL-12 R/B(2)            
1 26486U 00051D   26064.48694784  .00000045  00000+0  00000+0 0  9997
2 26486  63.2172 248.7040 6712597 278.2750  13.5633  1.45766259135726
ARIANE 5 R/B            
1 26496U 00054C   26064.52746844  .00000024  00000+0  92610-3 0  9990
2 26496   7.0087 260.4318 7183921 208.8943  77.2736  2.24228326208643
NSS-11                  
1 26554U 00059A   26064.68030781  .00000018  00000+0  00000+0 0  9994
2 26554   1.8592  82.6563 0003171 269.4661 232.1912  1.00272508 40251
SL-12 R/B(2)            
1 26557U 00059D   26063.98435633 -.00000129  00000+0  00000+0 0  9998
2 26557  15.1381  86.9788 5084026  47.2772 346.6209  1.86635941173325
USA 153                 
1 26575U 00065A   26064.32457756 -.00000330  00000+0  00000+0 0  9998
2 26575  11.4469  36.2646 0002616 346.0082  32.0259  1.00269539 31894
IABS R/B                
1 26577U 00065C   26063.61934266 -.00000060  00000+0  00000+0 0  9997
2 26577  13.9357   2.4124 0059375 279.4672  79.8684  1.01178645 25165
AMC-6                   
1 26580U 00067A   26064.62775490  .00000081  00000+0  00000+0 0  9999
2 26580   0.0314 322.9282 0003092  27.1013 264.2486  1.00272696 92856
SL-12 R/B(2)            
1 26583U 00067D   26064.16307074 -.00000166  00000+0  00000+0 0  9995
2 26583  18.1404 282.2826 5534411 354.1919   1.4875  1.93859566179227
PHASE 3D (AO-40)        
1 26609U 00072B   26064.31074945 -.00000376  00000+0  00000+0 0  9998
2 26609   9.5773   6.9746 7943279 145.8344 310.6988  1.25587948116202
STRV 1C                 
1 26610U 00072C   26063.95458925 -.00000404  00000+0  26031-2 0  9990
2 26610   6.8601  43.0292 7335144 114.3296 335.1728  2.03543427187961
STRV 1D                 
1 26611U 00072D   26061.01116224 -.00000280  00000+0  30012-2 0  9995
2 26611   6.8563  45.1261 7337531 110.0624 337.7139  2.03405721 88304
ARIANE 5 R/B            
1 26612U 00072E   26064.21728307 -.00000265  00000+0  47700-3 0  9998
2 26612   6.7399  84.5118 7346994  28.8417 357.1004  2.01773773186532
ARIANE 5 DEB [SYLDA]    
1 26613U 00072F   26064.28855498 -.00000174  00000+0 -56434-3 0  9992
2 26613   6.8784  54.0654 7335970  92.1532   4.2889  2.03116672187200
