[{"OBJECT_NAME":"BLOCK DM-SL R/B","OBJECT_ID":"2000-043B","EPOCH":"2026-03-05T16:00:15.127200","MEAN_MOTION":2.16748332,"ECCENTRICITY":0.6709126,"INCLINATION":1.4036,"RA_OF_ASC_NODE":95.078,"ARG_OF_PERICENTER":220.5094,"MEAN_ANOMALY":77.3727,"EPHEMERIS_TYPE":0,"CLASSIFICATION_TYPE":"U","NORAD_CAT_ID":26452,"ELEMENT_SET_NO":999,"REV_AT_EPOCH":20235,"BSTAR":0,"MEAN_MOTION_DOT":-1.32e-6,"MEAN_MOTION_DDOT":0},{"OBJECT_NAME":"FENGYUN 2B AKM","OBJECT_ID":"2000-032C","EPOCH":"2026-03-03T01:35:56.304096","MEAN_MOTION":1.00192807,"ECCENTRICITY":0.002268,"INCLINATION":14.3777,"RA_OF_ASC_NODE":7.0654,"ARG_OF_PERICENTER":35.0353,"MEAN_ANOMALY":325.1205,"EPHEMERIS_TYPE":0,"CLASSIFICATION_TYPE":"U","NORAD_CAT_ID":26460,"ELEMENT_SET_NO":999,"REV_AT_EPOCH":12112,"BSTAR":0,"MEAN_MOTION_DOT":1.8e-7,"MEAN_MOTION_DDOT":0},{"OBJECT_NAME":"CLUSTER II-FM8 (TANGO)","OBJECT_ID":"2000-045B","EPOCH":"2026-02-18T01:30:32.809536","MEAN_MOTION":0.44405995,"ECCENTRICITY":0.88900451,"INCLINATION":149.0711,"RA_OF_ASC_NODE":33.5376,"ARG_OF_PERICENTER":249.457,"MEAN_ANOMALY":359.4916,"EPHEMERIS_TYPE":0,"CLASSIFICATION_TYPE":"U","NORAD_CAT_ID":26464,"ELEMENT_SET_NO":999,"REV_AT_EPOCH":1976,"BSTAR":0,"MEAN_MOTION_DOT":4.776e-5,"MEAN_MOTION_DDOT":0},{"OBJECT_NAME":"RADUGA-1 5","OBJECT_ID":"2000-049A","EPOCH":"2026-03-05T07:38:16.874304","MEAN_MOTION":1.00243531,"ECCENTRICITY":0.0001389,"INCLINATION":13.9086,"RA_OF_ASC_NODE":8.8353,"ARG_OF_PERICENTER":18.5405,"MEAN_ANOMALY":352.8645,"EPHEMERIS_TYPE":0,"CLASSIFICATION_TYPE":"U","NORAD_CAT_ID":26477,"ELEMENT_SET_NO":999,"REV_AT_EPOCH":9338,"BSTAR":0,"MEAN_MOTION_DOT":-3.35e-6,"MEAN_MOTION_DDOT":0},{"OBJECT_NAME":"SL-12 R/B(2)","OBJECT_ID":"2000-051D","EPOCH":"2026-03-05T11:41:12.293376","MEAN_MOTION":1.45766259,"ECCENTRICITY":0.6712597,"INCLINATION":63.2172,"RA_OF_ASC_NODE":248.704,"ARG_OF_PERICENTER":278.275,"MEAN_ANOMALY":13.5633,"EPHEMERIS_TYPE":0,"CLASSIFICATION_TYPE":"U","NORAD_CAT_ID":26486,"ELEMENT_SET_NO":999,"REV_AT_EPOCH":13572,"BSTAR":0,"MEAN_MOTION_DOT":4.5e-7,"MEAN_MOTION_DDOT":0},{"OBJECT_NAME":"ARIANE 5 R/B","OBJECT_ID":"2000-054C","EPOCH":"2026-03-05T12:39:33.273216","MEAN_MOTION":2.24228326,"ECCENTRICITY":0.7183921,"INCLINATION":7.0087,"RA_OF_ASC_NODE":260.4318,"ARG_OF_PERICENTER":208.8943,"MEAN_ANOMALY":77.2736,"EPHEMERIS_TYPE":0,"CLASSIFICATION_TYPE":"U","NORAD_CAT_ID":26496,"ELEMENT_SET_NO":999,"REV_AT_EPOCH":20864,"BSTAR":0.0009261,"MEAN_MOTION_DOT":2.4e-7,"MEAN_MOTION_DDOT":0},{"OBJECT_NAME":"NSS-11","OBJECT_ID":"2000-059A","EPOCH":"2026-03-05T16:19:38.594784","MEAN_MOTION":1.00272508,"ECCENTRICITY":0.0003171,"INCLINATION":1.8592,"RA_OF_ASC_NODE":82.6563,"ARG_OF_PERICENTER":269.4661,"MEAN_ANOMALY":232.1912,"EPHEMERIS_TYPE":0,"CLASSIFICATION_TYPE":"U","NORAD_CAT_ID":26554,"ELEMENT_SET_NO":999,"REV_AT_EPOCH":4025,"BSTAR":0,"MEAN_MOTION_DOT":1.8e-7,"MEAN_MOTION_DDOT":0},{"OBJECT_NAME":"SL-12 R/B(2)","OBJECT_ID":"2000-059D","EPOCH":"2026-03-04T23:37:28.386912","MEAN_MOTION":1.86635941,"ECCENTRICITY":0.50840264,"INCLINATION":15.1381,"RA_OF_ASC_NODE":86.9788,"ARG_OF_PERICENTER":47.2772,"MEAN_ANOMALY":346.6209,"EPHEMERIS_TYPE":0,"CLASSIFICATION_TYPE":"U","NORAD_CAT_ID":26557,"ELEMENT_SET_NO":999,"REV_AT_EPOCH":17332,"BSTAR":0,"MEAN_MOTION_DOT":-1.29e-6,"MEAN_MOTION_DDOT":0},{"OBJECT_NAME":"USA 153","OBJECT_ID":"2000-065A","EPOCH":"2026-03-05T07:47:23.501184","MEAN_MOTION":1.00269539,"ECCENTRICITY":0.0002616,"INCLINATION":11.4469,"RA_OF_ASC_NODE":36.2646,"ARG_OF_PERICENTER":346.0082,"MEAN_ANOMALY":32.0259,"EPHEMERIS_TYPE":0,"CLASSIFICATION_TYPE":"U","NORAD_CAT_ID":26575,"ELEMENT_SET_NO":999,"REV_AT_EPOCH":3189,"BSTAR":0,"MEAN_MOTION_DOT":-3.3e-6,"MEAN_MOTION_DDOT":0},{"OBJECT_NAME":"IABS R/B","OBJECT_ID":"2000-065C","EPOCH":"2026-03-04T14:51:51.205824","MEAN_MOTION":1.01178645,"ECCENTRICITY":0.00593758,"INCLINATION":13.9357,"RA_OF_ASC_NODE":2.4124,"ARG_OF_PERICENTER":279.4672,"MEAN_ANOMALY":79.8684,"EPHEMERIS_TYPE":0,"CLASSIFICATION_TYPE":"U","NORAD_CAT_ID":26577,"ELEMENT_SET_NO":999,"REV_AT_EPOCH":2516,"BSTAR":0,"MEAN_MOTION_DOT":-6.0e-7,"MEAN_MOTION_DDOT":0},{"OBJECT_NAME":"AMC-6","OBJECT_ID":"2000-067A","EPOCH":"2026-03-05T15:03:58.023360","MEAN_MOTION":1.00272696,"ECCENTRICITY":0.0003092,"INCLINATION":0.0314,"RA_OF_ASC_NODE":322.9282,"ARG_OF_PERICENTER":27.1013,"MEAN_ANOMALY":264.2486,"EPHEMERIS_TYPE":0,"CLASSIFICATION_TYPE":"U","NORAD_CAT_ID":26580,"ELEMENT_SET_NO":999,"REV_AT_EPOCH":9285,"BSTAR":0,"MEAN_MOTION_DOT":8.1e-7,"MEAN_MOTION_DDOT":0},{"OBJECT_NAME":"SL-12 R/B(2)","OBJECT_ID":"2000-067D","EPOCH":"2026-03-05T03:54:49.311936","MEAN_MOTION":1.93859566,"ECCENTRICITY":0.5534411,"INCLINATION":18.1404,"RA_OF_ASC_NODE":282.2826,"ARG_OF_PERICENTER":354.1919,"MEAN_ANOMALY":1.4875,"EPHEMERIS_TYPE":0,"CLASSIFICATION_TYPE":"U","NORAD_CAT_ID":26583,"ELEMENT_SET_NO":999,"REV_AT_EPOCH":17922,"BSTAR":0,"MEAN_MOTION_DOT":-1.66e-6,"MEAN_MOTION_DDOT":0},{"OBJECT_NAME":"PHASE 3D (AO-40)","OBJECT_ID":"2000-072B","EPOCH":"2026-03-05T07:27:28.752480","MEAN_MOTION":1.25587948,"ECCENTRICITY":0.7943279,"INCLINATION":9.5773,"RA_OF_ASC_NODE":6.9746,"ARG_OF_PERICENTER":145.8344,"MEAN_ANOMALY":310.6988,"EPHEMERIS_TYPE":0,"CLASSIFICATION_TYPE":"U","NORAD_CAT_ID":26609,"ELEMENT_SET_NO":999,"REV_AT_EPOCH":11620,"BSTAR":0,"MEAN_MOTION_DOT":-3.76e-6,"MEAN_MOTION_DDOT":0},{"OBJECT_NAME":"STRV 1C","OBJECT_ID":"2000-072C","EPOCH":"2026-03-04T22:54:36.511200","MEAN_MOTION":2.03543427,"ECCENTRICITY":0.73351446,"INCLINATION":6.8601,"RA_OF_ASC_NODE":43.0292,"ARG_OF_PERICENTER":114.3296,"MEAN_ANOMALY":335.1728,"EPHEMERIS_TYPE":0,"CLASSIFICATION_TYPE":"U","NORAD_CAT_ID":26610,"ELEMENT_SET_NO":999,"REV_AT_EPOCH":18796,"BSTAR":0.0026030578,"MEAN_MOTION_DOT":-4.04e-6,"MEAN_MOTION_DDOT":0},{"OBJECT_NAME":"STRV 1D","OBJECT_ID":"2000-072D","EPOCH":"2026-03-02T00:16:04.417536","MEAN_MOTION":2.03405721,"ECCENTRICITY":0.73375314,"INCLINATION":6.8563,"RA_OF_ASC_NODE":45.1261,"ARG_OF_PERICENTER":110.0624,"MEAN_ANOMALY":337.7139,"EPHEMERIS_TYPE":0,"CLASSIFICATION_TYPE":"U","NORAD_CAT_ID":26611,"ELEMENT_SET_NO":999,"REV_AT_EPOCH":8830,"BSTAR":0.0030012023,"MEAN_MOTION_DOT":-2.8e-6,"MEAN_MOTION_DDOT":0},{"OBJECT_NAME":"ARIANE 5 R/B","OBJECT_ID":"2000-072E","EPOCH":"2026-03-05T05:12:53.257248","MEAN_MOTION":2.01773773,"ECCENTRICITY":0.7346994,"INCLINATION":6.7399,"RA_OF_ASC_NODE":84.5118,"ARG_OF_PERICENTER":28.8417,"MEAN_ANOMALY":357.1004,"EPHEMERIS_TYPE":0,"CLASSIFICATION_TYPE":"U","NORAD_CAT_ID":26612,"ELEMENT_SET_NO":999,"REV_AT_EPOCH":18653,"BSTAR":0.000477,"MEAN_MOTION_DOT":-2.65e-6,"MEAN_MOTION_DDOT":0},{"OBJECT_NAME":"ARIANE 5 DEB [SYLDA]","OBJECT_ID":"2000-072F","EPOCH":"2026-03-05T06:55:31.150272","MEAN_MOTION":2.03116672,"ECCENTRICITY":0.733597,"INCLINATION":6.8784,"RA_OF_ASC_NODE":54.0654,"ARG_OF_PERICENTER":92.1532,"MEAN_ANOMALY":4.2889,"EPHEMERIS_TYPE":0,"CLASSIFICATION_TYPE":"U","NORAD_CAT_ID":26613,"ELEMENT_SET_NO":999,"REV_AT_EPOCH":18720,"BSTAR":-0.00056434,"MEAN_MOTION_DOT":-1.74e-6,"MEAN_MOTION_DDOT":0}]
